QZS-1R                  
1 49336U 21096A   24087.90813255 -.00000204  00000+0  00000+0 0  9992
2 49336  35.7759  91.7581 0750765 269.8751 285.3384  1.00287740  8877
